idElset,classificationMarking,satNo,epoch,meanMotion,idOnOrbit,uct,eccentricity,inclination,raan,argOfPerigee,meanAnomaly,bStar,meanMotionDot,meanMotionDDot,semiMajorAxis,period,apogee,perigee,origObjectId,line1,line2,createdAt,createdBy,source,dataMode,ephemType,origNetwork,elset
33e85687-e84b-4548-bbeb-623a330980d3,U//PR-EXO-ELSETS,40892,2025-08-09T20:16:58.231143Z,1.002703599614686,40892,False,0.0001768181756517879,0.1086485353342189,270.9780768702244,236.8851477092946,269.9739248913418,0.0,0.0,0.0,42165.13350814188,1436.11731378381,42172.58907012491,42157.67794615886,40892,1 40892U 15046A   25221.84511842 +.00000000 +00000+0 +00000+0 2 99993,2 40892   0.1086 270.9781 0001768 236.8851 269.9739  1.00270359000001,2025-08-09T20:51:30.364Z,system.exo,EXO,REAL,2,OPS1,"{'NORAD_ID': 40892, 'classification': 'U', 'COSPAR_ID': '15046A', 'BC': 0.0, 'n_ddot': 0.0, 'B_star': 0.0, 'ephemeris_type': 2, 'elset_num': 9999, 'inclination': 0.1086, 'RAAN': 270.9781, 'eccentricity': 0.0001768, 'perigee': 236.8851, 'mean_anomaly': 269.9739, 'mean_motion': 1.00270359, 'rev_num': 0, 'line1': '1 40892U 15046A   25221.84511842 +.00000000 +00000+0 +00000+0 2 99993', 'line2': '2 40892   0.1086 270.9781 0001768 236.8851 269.9739  1.00270359000001', 'epoch': datetime.datetime(2025, 8, 9, 20, 16, 58, 231488)}"
08be0b0c-86af-431b-a2fb-fd7fb2c5770c,U//PR-EXO-ELSETS,40146,2025-08-09T18:42:34.127003Z,1.002692044170009,40146,False,0.0002993183484529187,0.04425037053003491,272.7534219792241,234.1053754492278,248.3033163712193,0.0,0.0,0.0,42165.45746000362,1436.133864203518,42178.07835509232,42152.83656491493,40146,1 40146U 14054A   25221.77956166 +.00000000 +00000+0 +00000+0 2 99997,2 40146   0.0443 272.7534 0002993 234.1054 248.3033  1.00269204000007,2025-08-09T21:00:30.705Z,system.exo,EXO,REAL,2,OPS1,"{'NORAD_ID': 40146, 'classification': 'U', 'COSPAR_ID': '14054A', 'BC': 0.0, 'n_ddot': 0.0, 'B_star': 0.0, 'ephemeris_type': 2, 'elset_num': 9999, 'inclination': 0.0443, 'RAAN': 272.7534, 'eccentricity': 0.0002993, 'perigee': 234.1054, 'mean_anomaly': 248.3033, 'mean_motion': 1.00269204, 'rev_num': 0, 'line1': '1 40146U 14054A   25221.77956166 +.00000000 +00000+0 +00000+0 2 99997', 'line2': '2 40146   0.0443 272.7534 0002993 234.1054 248.3033  1.00269204000007', 'epoch': datetime.datetime(2025, 8, 9, 18, 42, 34, 127424)}"
918f8989-96a3-4ee2-83fc-9f821b2c4b53,U//PR-EXO-ELSETS,36287,2025-08-09T19:26:20.610122Z,1.002713228392963,36287,False,0.0001702716211434958,3.560008477500879,60.79057495145309,300.1436879210456,29.606036980995,0.0,0.0,0.0,42164.86357428652,1436.103523145767,42172.04305396262,42157.68409461043,36287,1 36287U 10001A   25221.80996077 +.00000000 +00000+0 +00000+0 2 99995,2 36287   3.5600  60.7906 0001702 300.1437  29.6060  1.00271322000009,2025-08-09T23:39:31.371Z,system.exo,EXO,REAL,2,OPS1,"{'NORAD_ID': 36287, 'classification': 'U', 'COSPAR_ID': '10001A', 'BC': 0.0, 'n_ddot': 0.0, 'B_star': 0.0, 'ephemeris_type': 2, 'elset_num': 9999, 'inclination': 3.56, 'RAAN': 60.7906, 'eccentricity': 0.0001702, 'perigee': 300.1437, 'mean_anomaly': 29.606, 'mean_motion': 1.00271322, 'rev_num': 0, 'line1': '1 36287U 10001A   25221.80996077 +.00000000 +00000+0 +00000+0 2 99995', 'line2': '2 36287   3.5600  60.7906 0001702 300.1437  29.6060  1.00271322000009', 'epoch': datetime.datetime(2025, 8, 9, 19, 26, 20, 610528)}"
ef160e72-2ea9-475f-bcc9-cdcf8378b9a3,U//PR-EXO-ELSETS,38356,2025-08-09T19:59:10.900783Z,1.002671329202748,38356,False,0.00033474466389503,0.01415235245856868,85.43313892678364,64.9121413940049,274.0125790507013,0.0,0.0,0.0,42166.0382106696,1436.163534410606,42180.15306695821,42151.92335438098,38356,1 38356U 12030A   25221.83276506 +.00000000 +00000+0 +00000+0 2 99999,2 38356   0.0142  85.4331 0003347  64.9121 274.0126  1.00267132000002,2025-08-09T20:18:30.789Z,system.exo,EXO,REAL,2,OPS1,"{'NORAD_ID': 38356, 'classification': 'U', 'COSPAR_ID': '12030A', 'BC': 0.0, 'n_ddot': 0.0, 'B_star': 0.0, 'ephemeris_type': 2, 'elset_num': 9999, 'inclination': 0.0142, 'RAAN': 85.4331, 'eccentricity': 0.0003347, 'perigee': 64.9121, 'mean_anomaly': 274.0126, 'mean_motion': 1.00267132, 'rev_num': 0, 'line1': '1 38356U 12030A   25221.83276506 +.00000000 +00000+0 +00000+0 2 99999', 'line2': '2 38356   0.0142  85.4331 0003347  64.9121 274.0126  1.00267132000002', 'epoch': datetime.datetime(2025, 8, 9, 19, 59, 10, 901184)}"
c03c80f6-4a70-4cb0-b9ea-dca35bb190af,U//PR-EXO-ELSETS,55506,2025-08-09T19:59:10.900783Z,1.002684755513811,55506,False,0.0001689808305325607,0.05738532429756676,159.0644914167544,34.50674308285556,230.5518075283474,0.0,0.0,0.0,42165.66179750772,1436.144303662114,42172.78698605822,42158.53660895723,55506,1 55506U 23016A   25221.83276506 +.00000000 +00000+0 +00000+0 2 99991,2 55506   0.0574 159.0645 0001689  34.5067 230.5518  1.00268475000005,2025-08-09T20:18:30.801Z,system.exo,EXO,REAL,2,OPS1,"{'NORAD_ID': 55506, 'classification': 'U', 'COSPAR_ID': '23016A', 'BC': 0.0, 'n_ddot': 0.0, 'B_star': 0.0, 'ephemeris_type': 2, 'elset_num': 9999, 'inclination': 0.0574, 'RAAN': 159.0645, 'eccentricity': 0.0001689, 'perigee': 34.5067, 'mean_anomaly': 230.5518, 'mean_motion': 1.00268475, 'rev_num': 0, 'line1': '1 55506U 23016A   25221.83276506 +.00000000 +00000+0 +00000+0 2 99991', 'line2': '2 55506   0.0574 159.0645 0001689  34.5067 230.5518  1.00268475000005', 'epoch': datetime.datetime(2025, 8, 9, 19, 59, 10, 901184)}"
972991df-0cce-4a96-a4fb-714302f2bea8,U//PR-EXO-ELSETS,62006,2025-08-09T20:39:35.328268Z,1.002666719015665,62006,False,0.0001318386388088075,0.03221654167996513,242.3027259656007,286.7442194983726,203.4396910785339,0.0,0.0,0.0,42166.16746144459,1436.170137783841,42171.72659156648,42160.60833132268,62006,1 62006U 24212A   25221.86082556 +.00000000 +00000+0 +00000+0 2 99996,2 62006   0.0322 242.3027 0001318 286.7442 203.4397  1.00266671000006,2025-08-09T22:06:31.461Z,system.exo,EXO,REAL,2,OPS1,"{'NORAD_ID': 62006, 'classification': 'U', 'COSPAR_ID': '24212A', 'BC': 0.0, 'n_ddot': 0.0, 'B_star': 0.0, 'ephemeris_type': 2, 'elset_num': 9999, 'inclination': 0.0322, 'RAAN': 242.3027, 'eccentricity': 0.0001318, 'perigee': 286.7442, 'mean_anomaly': 203.4397, 'mean_motion': 1.00266671, 'rev_num': 0, 'line1': '1 62006U 24212A   25221.86082556 +.00000000 +00000+0 +00000+0 2 99996', 'line2': '2 62006   0.0322 242.3027 0001318 286.7442 203.4397  1.00266671000006', 'epoch': datetime.datetime(2025, 8, 9, 20, 39, 35, 328384)}"
b2356e01-bbe4-4dac-a98e-55c53568a3bc,U//PR-EXO-ELSETS,48808,2025-08-09T20:39:29.037737Z,1.002748790382414,48808,False,0.0004194414850993298,0.12729387103573,81.47139888101206,257.5222088647748,34.01031671423755,0.0,0.0,0.0,42163.86666438503,1436.052592445245,42181.55193923627,42146.18138953379,48808,1 48808U 21047A   25221.86075275 +.00000000 +00000+0 +00000+0 2 99993,2 48808   0.1273  81.4714 0004194 257.5222  34.0103  1.00274879000000,2025-08-09T22:30:31.372Z,system.exo,EXO,REAL,2,OPS1,"{'NORAD_ID': 48808, 'classification': 'U', 'COSPAR_ID': '21047A', 'BC': 0.0, 'n_ddot': 0.0, 'B_star': 0.0, 'ephemeris_type': 2, 'elset_num': 9999, 'inclination': 0.1273, 'RAAN': 81.4714, 'eccentricity': 0.0004194, 'perigee': 257.5222, 'mean_anomaly': 34.0103, 'mean_motion': 1.00274879, 'rev_num': 0, 'line1': '1 48808U 21047A   25221.86075275 +.00000000 +00000+0 +00000+0 2 99993', 'line2': '2 48808   0.1273  81.4714 0004194 257.5222  34.0103  1.00274879000000', 'epoch': datetime.datetime(2025, 8, 9, 20, 39, 29, 37600)}"
ad8d83bb-7c30-4b5a-b7ae-6da3ced012ec,U//PR-EXO-ELSETS,28913,2025-08-09T19:17:40.517992Z,2.248231276164227,28913,False,0.7142580989620168,4.071254404380011,65.02592334552685,112.7677616849753,316.0618131510904,0.0,0.0,0.0,24613.5660223152,640.5034994695146,42194.00489809016,7033.127146540258,28913,1 28913U 05049C   25221.80394118 +.00000000 +00000+0 +00000+0 2 99996,2 28913   4.0713  65.0259 7142580 112.7678 316.0618  2.24823127000002,2025-08-09T20:06:32.179Z,system.exo,EXO,REAL,2,OPS1,"{'NORAD_ID': 28913, 'classification': 'U', 'COSPAR_ID': '05049C', 'BC': 0.0, 'n_ddot': 0.0, 'B_star': 0.0, 'ephemeris_type': 2, 'elset_num': 9999, 'inclination': 4.0713, 'RAAN': 65.0259, 'eccentricity': 0.714258, 'perigee': 112.7678, 'mean_anomaly': 316.0618, 'mean_motion': 2.24823127, 'rev_num': 0, 'line1': '1 28913U 05049C   25221.80394118 +.00000000 +00000+0 +00000+0 2 99996', 'line2': '2 28913   4.0713  65.0259 7142580 112.7678 316.0618  2.24823127000002', 'epoch': datetime.datetime(2025, 8, 9, 19, 17, 40, 517952)}"
51736f2d-87a1-471f-a2ef-e1c3c6a420ac,U//PR-EXO-ELSETS,64062,2025-08-09T19:29:51.852106Z,1.002683420497251,64062,False,0.0004356175036347225,0.02516449584688772,265.8975742130625,308.801959645882,203.5687601713044,0.0,0.0,0.0,42165.69922497029,1436.146215807453,42184.06734160568,42147.3311083349,64062,1 64062U 25106A   25221.81240570 +.00000000 +00000+0 +00000+0 2 99990,2 64062   0.0252 265.8976 0004356 308.8020 203.5688  1.00268342000009,2025-08-09T20:12:32.478Z,system.exo,EXO,REAL,2,OPS1,"{'NORAD_ID': 64062, 'classification': 'U', 'COSPAR_ID': '25106A', 'BC': 0.0, 'n_ddot': 0.0, 'B_star': 0.0, 'ephemeris_type': 2, 'elset_num': 9999, 'inclination': 0.0252, 'RAAN': 265.8976, 'eccentricity': 0.0004356, 'perigee': 308.802, 'mean_anomaly': 203.5688, 'mean_motion': 1.00268342, 'rev_num': 0, 'line1': '1 64062U 25106A   25221.81240570 +.00000000 +00000+0 +00000+0 2 99990', 'line2': '2 64062   0.0252 265.8976 0004356 308.8020 203.5688  1.00268342000009', 'epoch': datetime.datetime(2025, 8, 9, 19, 29, 51, 852480)}"
